0 SL-16 DEB
1 22611U 93016V   13285.37263104  .00000037  00000-0  73139-4 0  9566
2 22611 070.9942 251.7188 0173080 204.4047 310.5982 13.77094866 31909
0 SL-16 DEB
1 22611U 93016V   13288.35197723  .00000097  00000-0  12705-3 0  9578
2 22611 070.9950 245.8406 0172959 200.1738 320.8148 13.77095405 32313
0 SL-16 DEB
1 22611U 93016V   13291.32917964  .00000111  00000-0  14028-3 0  9584
2 22611 070.9953 239.9671 0172777 195.9375 320.4182 13.77095903 32722
0 SL-16 DEB
1 22611U 93016V   13293.84641655  .00000118  00000-0  14594-3 0  9590
2 22611 070.9952 235.0011 0172624 192.3372 199.7454 13.77096720 33071
0 SL-16 DEB
1 22611U 93016V   13295.88568854  .00000103  00000-0  13243-3 0  9601
2 22611 070.9952 230.9781 0172509 189.4221 229.5417 13.77097533 33356
